{"type": "FeatureCollection", "features": [ {"type": "Feature", "properties": {"norad_id": 32289, "name": "YAOGAN-3", "group": "resource", "lat": 81.54859133198815, "lon": -85.69129339403595, "alt_km": 589.8183576335505, "timestamp": "2025-12-25T20:42:38.343829+00:00", "meta": {"OBJECT_NAME": "YAOGAN-3", "OBJECT_ID": "2007-055A", "EPOCH": "2025-12-25T07:23:58.823808", "MEAN_MOTION": 14.89920661, "ECCENTRICITY": 0.00013115, "INCLINATION": 97.8354, "RA_OF_ASC_NODE": 25.8196, "ARG_OF_PERICENTER": 85.5324, "MEAN_ANOMALY": 274.6043, "EPHEMERIS_TYPE": 0, "CLASSIFICATION_TYPE": "U", "NORAD_CAT_ID": 32289, "ELEMENT_SET_NO": 999, "REV_AT_EPOCH": 97996, "BSTAR": 0.00045938393, "MEAN_MOTION_DOT": 4.366e-05, "MEAN_MOTION_DDOT": 0}, "tle": {"line1": "1 32289U 07055A   25359.30831972  .00004366  00000+0  45938-3 0  9998", "line2": "2 32289  97.8354  25.8196 0001311  85.5324 274.6043 14.89920661979968"}}, "geometry": {"type": "Point", "coordinates": [-85.69129339403595, 81.54859133198815]}}, {"type": "Feature", "properties": {"norad_id": 32376, "name": "COSMO-SKYMED 2", "group": "resource", "lat": 7.134028433146793, "lon": 179.99561271356689, "alt_km": 624.3059403037296, "timestamp": "2025-12-25T20:42:38.343840+00:00", "meta": {"OBJECT_NAME": "COSMO-SKYMED 2", "OBJECT_ID": "2007-059A", "EPOCH": "2025-12-25T06:05:45.605184", "MEAN_MOTION": 14.82157646, "ECCENTRICITY": 0.00013071, "INCLINATION": 97.8806, "RA_OF_ASC_NODE": 180.3894, "ARG_OF_PERICENTER": 82.7467, "MEAN_ANOMALY": 277.3894, "EPHEMERIS_TYPE": 0, "CLASSIFICATION_TYPE": "U", "NORAD_CAT_ID": 32376, "ELEMENT_SET_NO": 999, "REV_AT_EPOCH": 97623, "BSTAR": 7.6477821e-05, "MEAN_MOTION_DOT": 5.57e-06, "MEAN_MOTION_DDOT": 0}, "tle": {"line1": "1 32376U 07059A   25359.25400006  .00000557  00000+0  76478-4 0  9995", "line2": "2 32376  97.8806 180.3894 0001307  82.7467 277.3894 14.82157646976230"}}, "geometry": {"type": "Point", "coordinates": [179.99561271356689, 7.134028433146793]}}, {"type": "Feature", "properties": {"norad_id": 32382, "name": "RADARSAT-2", "group": "resource", "lat": 15.427387713090276, "lon": 1.874376268011445, "alt_km": 792.200746184797, "timestamp": "2025-12-25T20:42:38.343850+00:00", "meta": {"OBJECT_NAME": "RADARSAT-2", "OBJECT_ID": "2007-061A", "EPOCH": "2025-12-25T07:12:12.624768", "MEAN_MOTION": 14.29985064, "ECCENTRICITY": 0.00011285, "INCLINATION": 98.5796, "RA_OF_ASC_NODE": 3.7075, "ARG_OF_PERICENTER": 85.2539, "MEAN_ANOMALY": 274.8772, "EPHEMERIS_TYPE": 0, "CLASSIFICATION_TYPE": "U", "NORAD_CAT_ID": 32382, "ELEMENT_SET_NO": 999, "REV_AT_EPOCH": 94110, "BSTAR": 5.8898939e-05, "MEAN_MOTION_DOT": 1.08e-06, "MEAN_MOTION_DDOT": 0}, "tle": {"line1": "1 32382U 07061A   25359.30014612  .00000108  00000+0  58899-4 0  9994", "line2": "2 32382  98.5796   3.7075 0001128  85.2539 274.8772 14.29985064941100"}}, "geometry": {"type": "Point", "coordinates": [1.874376268011445, 15.427387713090276]}}, {"type": "Feature", "properties": {"norad_id": 32783, "name": "CARTOSAT-2A", "group": "resource", "lat": -4.345764487270887, "lon": 49.87124527033848, "alt_km": 629.8881866854172, "timestamp": "2025-12-25T20:42:38.343861+00:00", "meta": {"OBJECT_NAME": "CARTOSAT-2A", "OBJECT_ID": "2008-021A", "EPOCH": "2025-12-25T07:44:25.290816", "MEAN_MOTION": 14.78955596, "ECCENTRICITY": 0.00109289, "INCLINATION": 97.7908, "RA_OF_ASC_NODE": 48.7517, "ARG_OF_PERICENTER": 322.7819, "MEAN_ANOMALY": 37.2634, "EPHEMERIS_TYPE": 0, "CLASSIFICATION_TYPE": "U", "NORAD_CAT_ID": 32783, "ELEMENT_SET_NO": 999, "REV_AT_EPOCH": 95310, "BSTAR": 0.0001851712, "MEAN_MOTION_DOT": 1.317e-05, "MEAN_MOTION_DDOT": 0}, "tle": {"line1": "1 32783U 08021A   25359.32251494  .00001317  00000+0  18517-3 0  9994", "line2": "2 32783  97.7908  48.7517 0010928 322.7819  37.2634 14.78955596953101"}}, "geometry": {"type": "Point", "coordinates": [49.87124527033848, -4.345764487270887]}}, {"type": "Feature", "properties": {"norad_id": 33320, "name": "HUANJING 1A (HJ-1A)", "group": "resource", "lat": 70.33276281075307, "lon": -34.49156081806089, "alt_km": 609.2235517764339, "timestamp": "2025-12-25T20:42:38.343871+00:00", "meta": {"OBJECT_NAME": "HUANJING 1A (HJ-1A)", "OBJECT_ID": "2008-041A", "EPOCH": "2025-12-25T07:26:16.751040", "MEAN_MOTION": 14.83431632, "ECCENTRICITY": 0.00192193, "INCLINATION": 97.655, "RA_OF_ASC_NODE": 347.0838, "ARG_OF_PERICENTER": 354.2233, "MEAN_ANOMALY": 5.8757, "EPHEMERIS_TYPE": 0, "CLASSIFICATION_TYPE": "U", "NORAD_CAT_ID": 33320, "ELEMENT_SET_NO": 999, "REV_AT_EPOCH": 93262, "BSTAR": 0.00019028127, "MEAN_MOTION_DOT": 1.516e-05, "MEAN_MOTION_DDOT": 0}, "tle": {"line1": "1 33320U 08041A   25359.30991610  .00001516  00000+0  19028-3 0  9992", "line2": "2 33320  97.6550 347.0838 0019219 354.2233   5.8757 14.83431632932621"}}, "geometry": {"type": "Point", "coordinates": [-34.49156081806089, 70.33276281075307]}}, {"type": "Feature", "properties": {"norad_id": 33321, "name": "HUANJING 1B (HJ-1B)", "group": "resource", "lat": -80.99170133432726, "lon": 113.41341053909252, "alt_km": 644.1972136700506, "timestamp": "2025-12-25T20:42:38.343882+00:00", "meta": {"OBJECT_NAME": "HUANJING 1B (HJ-1B)", "OBJECT_ID": "2008-041B", "EPOCH": "2025-12-25T06:33:42.450336", "MEAN_MOTION": 14.82854674, "ECCENTRICITY": 0.00377199, "INCLINATION": 97.6407, "RA_OF_ASC_NODE": 350.7128, "ARG_OF_PERICENTER": 36.0341, "MEAN_ANOMALY": 324.3405, "EPHEMERIS_TYPE": 0, "CLASSIFICATION_TYPE": "U", "NORAD_CAT_ID": 33321, "ELEMENT_SET_NO": 999, "REV_AT_EPOCH": 93263, "BSTAR": 0.00024306087, "MEAN_MOTION_DOT": 1.941e-05, "MEAN_MOTION_DDOT": 0}, "tle": {"line1": "1 33321U 08041B   25359.27340799  .00001941  00000+0  24306-3 0  9992", "line2": "2 33321  97.6407 350.7128 0037719  36.0341 324.3405 14.82854674932630"}}, "geometry": {"type": "Point", "coordinates": [113.41341053909252, -80.99170133432726]}}, {"type": "Feature", "properties": {"norad_id": 33331, "name": "GEOEYE 1", "group": "resource", "lat": 61.003843580473976, "lon": -94.08739779052561, "alt_km": 672.8056254356206, "timestamp": "2025-12-25T20:42:38.343892+00:00", "meta": {"OBJECT_NAME": "GEOEYE 1", "OBJECT_ID": "2008-042A", "EPOCH": "2025-12-25T05:25:06.254976", "MEAN_MOTION": 14.64716592, "ECCENTRICITY": 0.00030071, "INCLINATION": 98.1237, "RA_OF_ASC_NODE": 70.3484, "ARG_OF_PERICENTER": 230.7717, "MEAN_ANOMALY": 129.322, "EPHEMERIS_TYPE": 0, "CLASSIFICATION_TYPE": "U", "NORAD_CAT_ID": 33331, "ELEMENT_SET_NO": 999, "REV_AT_EPOCH": 92468, "BSTAR": 0.00012347117, "MEAN_MOTION_DOT": 6.1e-06, "MEAN_MOTION_DDOT": 0}, "tle": {"line1": "1 33331U 08042A   25359.22576684  .00000610  00000+0  12347-3 0  9997", "line2": "2 33331  98.1237  70.3484 0003007 230.7717 129.3220 14.64716592924681"}}, "geometry": {"type": "Point", "coordinates": [-94.08739779052561, 61.003843580473976]}}, {"type": "Feature", "properties": {"norad_id": 33396, "name": "THEOS", "group": "resource", "lat": 29.091493916845614, "lon": 52.743053807977674, "alt_km": 823.1690575193415, "timestamp": "2025-12-25T20:42:38.343902+00:00", "meta": {"OBJECT_NAME": "THEOS", "OBJECT_ID": "2008-049A", "EPOCH": "2025-12-25T07:02:40.478784", "MEAN_MOTION": 14.20099629, "ECCENTRICITY": 0.00012002, "INCLINATION": 98.5844, "RA_OF_ASC_NODE": 57.0118, "ARG_OF_PERICENTER": 93.2449, "MEAN_ANOMALY": 266.8865, "EPHEMERIS_TYPE": 0, "CLASSIFICATION_TYPE": "U", "NORAD_CAT_ID": 33396, "ELEMENT_SET_NO": 999, "REV_AT_EPOCH": 89328, "BSTAR": 0.00016749416, "MEAN_MOTION_DOT": 3.14e-06, "MEAN_MOTION_DDOT": 0}, "tle": {"line1": "1 33396U 08049A   25359.29352406  .00000314  00000+0  16749-3 0  9997", "line2": "2 33396  98.5844  57.0118 0001200  93.2449 266.8865 14.20099629893283"}}, "geometry": {"type": "Point", "coordinates": [52.743053807977674, 29.091493916845614]}}, {"type": "Feature", "properties": {"norad_id": 33412, "name": "COSMO-SKYMED 3", "group": "resource", "lat": -1.3811637818906242, "lon": 30.28574469984721, "alt_km": 546.0302740668176, "timestamp": "2025-12-25T20:42:38.343913+00:00", "meta": {"OBJECT_NAME": "COSMO-SKYMED 3", "OBJECT_ID": "2008-054A", "EPOCH": "2025-12-25T07:08:51.977184", "MEAN_MOTION": 15.05458802, "ECCENTRICITY": 0.00171062, "INCLINATION": 97.8452, "RA_OF_ASC_NODE": 209.9018, "ARG_OF_PERICENTER": 131.0768, "MEAN_ANOMALY": 229.1939, "EPHEMERIS_TYPE": 0, "CLASSIFICATION_TYPE": "U", "NORAD_CAT_ID": 33412, "ELEMENT_SET_NO": 999, "REV_AT_EPOCH": 93076, "BSTAR": 0.00019873483, "MEAN_MOTION_DOT": 2.798e-05, "MEAN_MOTION_DDOT": 0}, "tle": {"line1": "1 33412U 08054A   25359.29782381  .00002798  00000+0  19873-3 0  9990", "line2": "2 33412  97.8452 209.9018 0017106 131.0768 229.1939 15.05458802930768"}}, "geometry": {"type": "Point", "coordinates": [30.28574469984721, -1.3811637818906242]}}, {"type": "Feature", "properties": {"norad_id": 33446, "name": "YAOGAN-4", "group": "resource", "lat": 8.910056586360055, "lon": 111.08490979411863, "alt_km": 625.0381788644654, "timestamp": "2025-12-25T20:42:38.343923+00:00", "meta": {"OBJECT_NAME": "YAOGAN-4", "OBJECT_ID": "2008-061A", "EPOCH": "2025-12-25T06:59:02.368032", "MEAN_MOTION": 14.82718056, "ECCENTRICITY": 0.00129714, "INCLINATION": 97.9197, "RA_OF_ASC_NODE": 289.268, "ARG_OF_PERICENTER": 278.7687, "MEAN_ANOMALY": 81.2057, "EPHEMERIS_TYPE": 0, "CLASSIFICATION_TYPE": "U", "NORAD_CAT_ID": 33446, "ELEMENT_SET_NO": 999, "REV_AT_EPOCH": 91989, "BSTAR": 0.00017932841, "MEAN_MOTION_DOT": 1.395e-05, "MEAN_MOTION_DDOT": 0}, "tle": {"line1": "1 33446U 08061A   25359.29099963  .00001395  00000+0  17933-3 0  9999", "line2": "2 33446  97.9197 289.2680 0012971 278.7687  81.2057 14.82718056919895"}}, "geometry": {"type": "Point", "coordinates": [111.08490979411863, 8.910056586360055]}}]}